CTC1_L_00377016-03
1 21478U 23021NN  26037.47805556  .00000000  00000+0  00000-0 0  9997
2 21478  80.0000 180.0000 0000000   0.0000   0.0000 13.16009617    16
CTC1_L_00377016-04
1 21479U 25928IB  26037.47805556  .00000000  00000+0  00000-0 0  9996
2 21479  80.0000 180.0000 0000000   0.0000  90.0000 13.16009617    16
CTC1_L_00377017-01
1 21480U 23485BP  26037.47805556  .00000000  00000+0  00000-0 0  9994
2 21480  80.0000 192.0000 0000000   0.0000 192.0000 13.16009617    14
CTC1_L_00377017-02
1 21481U 24220IS  26037.47805556  .00000000  00000+0  00000-0 0  9993
2 21481  80.0000 192.0000 0000000   0.0000 282.0000 13.16009617    15
CTC1_L_00377017-03
1 21482U 22402LF  26037.47805556  .00000000  00000+0  00000-0 0  9994
2 21482  80.0000 192.0000 0000000   0.0000  12.0000 13.16009617    17
CTC1_L_00377017-04
1 21483U 22044WV  26037.47805556  .00000000  00000+0  00000-0 0  9997
2 21483  80.0000 192.0000 0000000   0.0000 102.0000 13.16009617    18
CTC1_L_00377018-01
1 21484U 26234LH  26037.47805556  .00000000  00000+0  00000-0 0  9993
2 21484  80.0000 204.0000 0000000   0.0000 204.0000 13.16009617    16
CTC1_L_00377018-02
1 21485U 26917TT  26037.47805556  .00000000  00000+0  00000-0 0  9992
2 21485  80.0000 204.0000 0000000   0.0000 294.0000 13.16009617    16
CTC1_L_00377018-03
1 21486U 24309MA  26037.47805556  .00000000  00000+0  00000-0 0  9996
2 21486  80.0000 204.0000 0000000   0.0000  24.0000 13.16009617    18
CTC1_L_00377018-04
1 21487U 26927AF  26037.47805556  .00000000  00000+0  00000-0 0  9995
2 21487  80.0000 204.0000 0000000   0.0000 114.0000 13.16009617    19
CTC1_L_00377019-01
1 21488U 24017AZ  26037.47805556  .00000000  00000+0  00000-0 0  9994
2 21488  80.0000 216.0000 0000000   0.0000 216.0000 13.16009617    16
CTC1_L_00377019-02
1 21489U 24185SA  26037.47805556  .00000000  00000+0  00000-0 0  9991
2 21489  80.0000 216.0000 0000000   0.0000 306.0000 13.16009617    17
CTC1_L_00377019-03
1 21490U 25250BT  26037.47805556  .00000000  00000+0  00000-0 0  9997
2 21490  80.0000 216.0000 0000000   0.0000  36.0000 13.16009617    19
CTC1_L_00377019-04
1 21491U 25073UZ  26037.47805556  .00000000  00000+0  00000-0 0  9991
2 21491  80.0000 216.0000 0000000   0.0000 126.0000 13.16009617    10
CTC1_L_00377020-01
1 21492U 24197QD  26037.47805556  .00000000  00000+0  00000-0 0  9998
2 21492  80.0000 228.0000 0000000   0.0000 228.0000 13.16009617    17
CTC1_L_00377020-02
1 21493U 25781OV  26037.47805556  .00000000  00000+0  00000-0 0  9999
2 21493  80.0000 228.0000 0000000   0.0000 318.0000 13.16009617    18
CTC1_L_00377020-03
1 21494U 25939ZH  26037.47805556  .00000000  00000+0  00000-0 0  9995
2 21494  80.0000 228.0000 0000000   0.0000  48.0000 13.16009617    19
CTC1_L_00377020-04
1 21495U 23720AO  26037.47805556  .00000000  00000+0  00000-0 0  9992
2 21495  80.0000 228.0000 0000000   0.0000 138.0000 13.16009617    10
CTC1_L_00377021-01
1 21496U 24705LM  26037.47805556  .00000000  00000+0  00000-0 0  9997
2 21496  80.0000 240.0000 0000000   0.0000 240.0000 13.16009617    19
CTC1_L_00377021-02
1 21497U 26535UI  26037.47805556  .00000000  00000+0  00000-0 0  9991
2 21497  80.0000 240.0000 0000000   0.0000 330.0000 13.16009617    10
CTC1_L_00377021-03
1 21498U 26432LR  26037.47805556  .00000000  00000+0  00000-0 0  9998
2 21498  80.0000 240.0000 0000000   0.0000  60.0000 13.16009617    11
CTC1_L_00377021-04
1 21499U 25100JJ  26037.47805556  .00000000  00000+0  00000-0 0  9990
2 21499  80.0000 240.0000 0000000   0.0000 150.0000 13.16009617    12
CTC1_L_00377022-01
1 21500U 23407T   26037.47805556  .00000000  00000+0  00000-0 0  9991
2 21500  80.0000 252.0000 0000000   0.0000 252.0000 13.16009617    11
CTC1_L_00377022-02
1 21501U 26853TV  26037.47805556  .00000000  00000+0  00000-0 0  9990
2 21501  80.0000 252.0000 0000000   0.0000 342.0000 13.16009617    12
CTC1_L_00377022-03
1 21502U 25548PG  26037.47805556  .00000000  00000+0  00000-0 0  9991
2 21502  80.0000 252.0000 0000000   0.0000  72.0000 13.16009617    13
CTC1_L_00377022-04
1 21503U 23390KF  26037.47805556  .00000000  00000+0  00000-0 0  9995
2 21503  80.0000 252.0000 0000000   0.0000 162.0000 13.16009617    14
CTC1_L_00377023-01
1 21504U 25359ST  26037.47805556  .00000000  00000+0  00000-0 0  9993
2 21504  80.0000 264.0000 0000000   0.0000 264.0000 13.16009617    11
CTC1_L_00377023-02
1 21505U 24868JX  26037.47805556  .00000000  00000+0  00000-0 0  9998
2 21505  80.0000 264.0000 0000000   0.0000 354.0000 13.16009617    12
CTC1_L_00377023-03
1 21506U 22166PH  26037.47805556  .00000000  00000+0  00000-0 0  9998
2 21506  80.0000 264.0000 0000000   0.0000  84.0000 13.16009617    13
CTC1_L_00377023-04
1 21507U 24595FA  26037.47805556  .00000000  00000+0  00000-0 0  9997
2 21507  80.0000 264.0000 0000000   0.0000 174.0000 13.16009617    14
CTC1_L_00377024-01
1 21508U 24311BH  26037.47805556  .00000000  00000+0  00000-0 0  9994
2 21508  80.0000 276.0000 0000000   0.0000 276.0000 13.16009617    11
CTC1_L_00377024-02
1 21509U 25483LG  26037.47805556  .00000000  00000+0  00000-0 0  9996
2 21509  80.0000 276.0000 0000000   0.0000   6.0000 13.16009617    13
CTC1_L_00377024-03
1 21510U 23054PQ  26037.47805556  .00000000  00000+0  00000-0 0  9990
2 21510  80.0000 276.0000 0000000   0.0000  96.0000 13.16009617    14
CTC1_L_00377024-04
1 21511U 22945BO  26037.47805556  .00000000  00000+0  00000-0 0  9999
2 21511  80.0000 276.0000 0000000   0.0000 186.0000 13.16009617    15
CTC1_L_00377025-01
1 21512U 24219YC  26037.47805556  .00000000  00000+0  00000-0 0  9996
2 21512  80.0000 288.0000 0000000   0.0000 288.0000 13.16009617    12
CTC1_L_00377025-02
1 21513U 26436RA  26037.47805556  .00000000  00000+0  00000-0 0  9990
2 21513  80.0000 288.0000 0000000   0.0000  18.0000 13.16009617    14
CTC1_L_00377025-03
1 21514U 22169XZ  26037.47805556  .00000000  00000+0  00000-0 0  9990
2 21514  80.0000 288.0000 0000000   0.0000 108.0000 13.16009617    15
CTC1_L_00377025-04
1 21515U 23752ZF  26037.47805556  .00000000  00000+0  00000-0 0  9990
2 21515  80.0000 288.0000 0000000   0.0000 198.0000 13.16009617    15
CTC1_L_00377026-01
1 21516U 26146WV  26037.47805556  .00000000  00000+0  00000-0 0  9991
2 21516  80.0000 300.0000 0000000   0.0000 300.0000 13.16009617    16
CTC1_L_00377026-02
1 21517U 22342EM  26037.47805556  .00000000  00000+0  00000-0 0  9996
2 21517  80.0000 300.0000 0000000   0.0000  30.0000 13.16009617    17
CTC1_L_00377026-03
1 21518U 25040PZ  26037.47805556  .00000000  00000+0  00000-0 0  9995
2 21518  80.0000 300.0000 0000000   0.0000 120.0000 13.16009617    18
CTC1_L_00377026-04
1 21519U 24413ZI  26037.47805556  .00000000  00000+0  00000-0 0  9999
2 21519  80.0000 300.0000 0000000   0.0000 210.0000 13.16009617    19
CTC1_L_00377027-01
1 21520U 22982KD  26037.47805556  .00000000  00000+0  00000-0 0  9990
2 21520  80.0000 312.0000 0000000   0.0000 312.0000 13.16009617    17
CTC1_L_00377027-02
1 21521U 25764QE  26037.47805556  .00000000  00000+0  00000-0 0  9992
2 21521  80.0000 312.0000 0000000   0.0000  42.0000 13.16009617    18
CTC1_L_00377027-03
1 21522U 24521FS  26037.47805556  .00000000  00000+0  00000-0 0  9993
2 21522  80.0000 312.0000 0000000   0.0000 132.0000 13.16009617    19
CTC1_L_00377027-04
1 21523U 22649PK  26037.47805556  .00000000  00000+0  00000-0 0  9993
2 21523  80.0000 312.0000 0000000   0.0000 222.0000 13.16009617    10
CTC1_L_00377028-01
1 21524U 26887EM  26037.47805556  .00000000  00000+0  00000-0 0  9992
2 21524  80.0000 324.0000 0000000   0.0000 324.0000 13.16009617    17
CTC1_L_00377028-02
1 21525U 23874GR  26037.47805556  .00000000  00000+0  00000-0 0  9996
2 21525  80.0000 324.0000 0000000   0.0000  54.0000 13.16009617    18
CTC1_L_00377028-03
1 21526U 23337SY  26037.47805556  .00000000  00000+0  00000-0 0  9991
2 21526  80.0000 324.0000 0000000   0.0000 144.0000 13.16009617    19
CTC1_L_00377028-04
1 21527U 22272LS  26037.47805556  .00000000  00000+0  00000-0 0  9999
2 21527  80.0000 324.0000 0000000   0.0000 234.0000 13.16009617    10
CTC1_L_00377029-01
1 21528U 25392QG  26037.47805556  .00000000  00000+0  00000-0 0  9996
2 21528  80.0000 336.0000 0000000   0.0000 336.0000 13.16009617    17
CTC1_L_00377029-02
1 21529U 23943QG  26037.47805556  .00000000  00000+0  00000-0 0  9997
2 21529  80.0000 336.0000 0000000   0.0000  66.0000 13.16009617    18
CTC1_L_00377029-03
1 21530U 24475EL  26037.47805556  .00000000  00000+0  00000-0 0  9990
2 21530  80.0000 336.0000 0000000   0.0000 156.0000 13.16009617    10
CTC1_L_00377029-04
1 21531U 22572CF  26037.47805556  .00000000  00000+0  00000-0 0  9997
2 21531  80.0000 336.0000 0000000   0.0000 246.0000 13.16009617    11
CTC1_L_00377030-01
1 21532U 24419QX  26037.47805556  .00000000  00000+0  00000-0 0  9990
2 21532  80.0000 348.0000 0000000   0.0000 348.0000 13.16009617    18
CTC1_L_00377030-02
1 21533U 23306OA  26037.47805556  .00000000  00000+0  00000-0 0  9995
2 21533  80.0000 348.0000 0000000   0.0000  78.0000 13.16009617    19
CTC1_L_00377030-03
1 21534U 24501ZW  26037.47805556  .00000000  00000+0  00000-0 0  9994
2 21534  80.0000 348.0000 0000000   0.0000 168.0000 13.16009617    10
CTC1_L_00377030-04
1 21535U 22541OB  26037.47805556  .00000000  00000+0  00000-0 0  9997
2 21535  80.0000 348.0000 0000000   0.0000 258.0000 13.16009617    11
